[{"OBJECT_NAME":"COSMOS 2503","OBJECT_ID":"2015-009A","EPOCH":"2026-03-09T16:42:37.703808","MEAN_MOTION":15.06275973,"ECCENTRICITY":0.00153206,"INCLINATION":97.8437,"RA_OF_ASC_NODE":123.7175,"ARG_OF_PERICENTER":225.745,"MEAN_ANOMALY":134.252,"EPHEMERIS_TYPE":0,"CLASSIFICATION_TYPE":"U","NORAD_CAT_ID":40420,"ELEMENT_SET_NO":999,"REV_AT_EPOCH":60395,"BSTAR":0.00019589832,"MEAN_MOTION_DOT":2.817e-5,"MEAN_MOTION_DDOT":0},{"OBJECT_NAME":"STARLINK-5711","OBJECT_ID":"2023-015Y","EPOCH":"2026-03-08T03:19:44.798016","MEAN_MOTION":15.02506612,"ECCENTRICITY":0.00015825,"INCLINATION":43.0038,"RA_OF_ASC_NODE":334.159,"ARG_OF_PERICENTER":247.6794,"MEAN_ANOMALY":112.3881,"EPHEMERIS_TYPE":0,"CLASSIFICATION_TYPE":"U","NORAD_CAT_ID":55471,"ELEMENT_SET_NO":999,"REV_AT_EPOCH":17052,"BSTAR":-0.00016880703,"MEAN_MOTION_DOT":-2.481e-5,"MEAN_MOTION_DDOT":0}]
